{"type": "FeatureCollection", "features": [ {"type": "Feature", "properties": {"norad_id": 43010, "name": "FENGYUN 3D", "group": "weather", "lat": -75.62857380707726, "lon": 104.66855853119964, "alt_km": 833.9541868424631, "timestamp": "2025-12-22T08:58:19.986948+00:00", "meta": {"OBJECT_NAME": "FENGYUN 3D", "OBJECT_ID": "2017-072A", "EPOCH": "2025-12-22T04:22:27.716736", "MEAN_MOTION": 14.19687723, "ECCENTRICITY": 0.0001414, "INCLINATION": 98.9902, "RA_OF_ASC_NODE": 322.6338, "ARG_OF_PERICENTER": 154.8174, "MEAN_ANOMALY": 205.307, "EPHEMERIS_TYPE": 0, "CLASSIFICATION_TYPE": "U", "NORAD_CAT_ID": 43010, "ELEMENT_SET_NO": 999, "REV_AT_EPOCH": 41987, "BSTAR": 0.00024818, "MEAN_MOTION_DOT": 4.79e-06, "MEAN_MOTION_DDOT": 0}, "tle": {"line1": "1 43010U 17072A   25356.18226524  .00000479  00000+0  24818-3 0  9991", "line2": "2 43010  98.9902 322.6338 0001414 154.8174 205.3070 14.19687723419878"}}, "geometry": {"type": "Point", "coordinates": [104.66855853119964, -75.62857380707726]}}, {"type": "Feature", "properties": {"norad_id": 43013, "name": "NOAA 20 (JPSS-1)", "group": "weather", "lat": 44.598679360847306, "lon": -76.18115830054896, "alt_km": 821.7511252268778, "timestamp": "2025-12-22T08:58:19.986960+00:00", "meta": {"OBJECT_NAME": "NOAA 20 (JPSS-1)", "OBJECT_ID": "2017-073A", "EPOCH": "2025-12-22T01:59:35.244384", "MEAN_MOTION": 14.19528104, "ECCENTRICITY": 0.0002119, "INCLINATION": 98.7612, "RA_OF_ASC_NODE": 292.278, "ARG_OF_PERICENTER": 73.807, "MEAN_ANOMALY": 286.3339, "EPHEMERIS_TYPE": 0, "CLASSIFICATION_TYPE": "U", "NORAD_CAT_ID": 43013, "ELEMENT_SET_NO": 999, "REV_AT_EPOCH": 41934, "BSTAR": 6.243e-05, "MEAN_MOTION_DOT": 8.8e-07, "MEAN_MOTION_DDOT": 0}, "tle": {"line1": "1 43013U 17073A   25356.08304681  .00000088  00000+0  62430-4 0  9994", "line2": "2 43013  98.7612 292.2780 0002119  73.8070 286.3339 14.19528104419344"}}, "geometry": {"type": "Point", "coordinates": [-76.18115830054896, 44.598679360847306]}}, {"type": "Feature", "properties": {"norad_id": 43226, "name": "GOES 17", "group": "weather", "lat": 0.37158357327363495, "lon": 136.2208872853726, "alt_km": 35797.22245663604, "timestamp": "2025-12-22T08:58:19.986973+00:00", "meta": {"OBJECT_NAME": "GOES 17", "OBJECT_ID": "2018-022A", "EPOCH": "2025-12-21T19:37:11.781408", "MEAN_MOTION": 1.00270327, "ECCENTRICITY": 0.0003108, "INCLINATION": 0.4796, "RA_OF_ASC_NODE": 89.1184, "ARG_OF_PERICENTER": 191.8942, "MEAN_ANOMALY": 14.4072, "EPHEMERIS_TYPE": 0, "CLASSIFICATION_TYPE": "U", "NORAD_CAT_ID": 43226, "ELEMENT_SET_NO": 999, "REV_AT_EPOCH": 2864, "BSTAR": 0, "MEAN_MOTION_DOT": -1.6e-06, "MEAN_MOTION_DDOT": 0}, "tle": {"line1": "1 43226U 18022A   25355.81749747 -.00000160  00000+0  00000+0 0  9993", "line2": "2 43226   0.4796  89.1184 0003108 191.8942  14.4072  1.00270327 28642"}}, "geometry": {"type": "Point", "coordinates": [136.2208872853726, 0.37158357327363495]}}, {"type": "Feature", "properties": {"norad_id": 43491, "name": "FENGYUN 2H", "group": "weather", "lat": -1.807992196470373, "lon": -54.89915439638645, "alt_km": 35781.19626357135, "timestamp": "2025-12-22T08:58:19.986986+00:00", "meta": {"OBJECT_NAME": "FENGYUN 2H", "OBJECT_ID": "2018-050A", "EPOCH": "2025-12-22T01:33:30.594816", "MEAN_MOTION": 1.00271057, "ECCENTRICITY": 0.0002363, "INCLINATION": 2.5736, "RA_OF_ASC_NODE": 81.232, "ARG_OF_PERICENTER": 165.9246, "MEAN_ANOMALY": 306.4444, "EPHEMERIS_TYPE": 0, "CLASSIFICATION_TYPE": "U", "NORAD_CAT_ID": 43491, "ELEMENT_SET_NO": 999, "REV_AT_EPOCH": 2766, "BSTAR": 0, "MEAN_MOTION_DOT": -1.09e-06, "MEAN_MOTION_DDOT": 0}, "tle": {"line1": "1 43491U 18050A   25356.06493744 -.00000109  00000+0  00000+0 0  9992", "line2": "2 43491   2.5736  81.2320 0002363 165.9246 306.4444  1.00271057 27668"}}, "geometry": {"type": "Point", "coordinates": [-54.89915439638645, -1.807992196470373]}}, {"type": "Feature", "properties": {"norad_id": 43689, "name": "METOP-C", "group": "weather", "lat": -72.02089254818456, "lon": -154.12804671451008, "alt_km": 827.9384754354933, "timestamp": "2025-12-22T08:58:19.986998+00:00", "meta": {"OBJECT_NAME": "METOP-C", "OBJECT_ID": "2018-087A", "EPOCH": "2025-12-22T04:24:05.043744", "MEAN_MOTION": 14.21487929, "ECCENTRICITY": 7.9e-05, "INCLINATION": 98.6915, "RA_OF_ASC_NODE": 53.8077, "ARG_OF_PERICENTER": 21.5039, "MEAN_ANOMALY": 338.6172, "EPHEMERIS_TYPE": 0, "CLASSIFICATION_TYPE": "U", "NORAD_CAT_ID": 43689, "ELEMENT_SET_NO": 999, "REV_AT_EPOCH": 36968, "BSTAR": 8.6122e-05, "MEAN_MOTION_DOT": 1.45e-06, "MEAN_MOTION_DDOT": 0}, "tle": {"line1": "1 43689U 18087A   25356.18339171  .00000145  00000+0  86122-4 0  9990", "line2": "2 43689  98.6915  53.8077 0000790  21.5039 338.6172 14.21487929369685"}}, "geometry": {"type": "Point", "coordinates": [-154.12804671451008, -72.02089254818456]}}, {"type": "Feature", "properties": {"norad_id": 43823, "name": "GEO-KOMPSAT-2A", "group": "weather", "lat": -0.0371430398296343, "lon": -5.983298833043175, "alt_km": 35787.05451371306, "timestamp": "2025-12-22T08:58:19.987016+00:00", "meta": {"OBJECT_NAME": "GEO-KOMPSAT-2A", "OBJECT_ID": "2018-100A", "EPOCH": "2025-12-22T00:04:46.593120", "MEAN_MOTION": 1.00270405, "ECCENTRICITY": 3.89e-05, "INCLINATION": 0.0515, "RA_OF_ASC_NODE": 130.0014, "ARG_OF_PERICENTER": 332.6805, "MEAN_ANOMALY": 117.594, "EPHEMERIS_TYPE": 0, "CLASSIFICATION_TYPE": "U", "NORAD_CAT_ID": 43823, "ELEMENT_SET_NO": 999, "REV_AT_EPOCH": 2585, "BSTAR": 0, "MEAN_MOTION_DOT": -3.22e-06, "MEAN_MOTION_DDOT": 0}, "tle": {"line1": "1 43823U 18100A   25356.00331705 -.00000322  00000+0  00000+0 0  9996", "line2": "2 43823   0.0515 130.0014 0000389 332.6805 117.5940  1.00270405 25855"}}, "geometry": {"type": "Point", "coordinates": [-5.983298833043175, -0.0371430398296343]}}, {"type": "Feature", "properties": {"norad_id": 44387, "name": "METEOR-M2 2", "group": "weather", "lat": 64.12223230857659, "lon": -42.61949563608515, "alt_km": 804.0289841597032, "timestamp": "2025-12-22T08:58:19.987028+00:00", "meta": {"OBJECT_NAME": "METEOR-M2 2", "OBJECT_ID": "2019-038A", "EPOCH": "2025-12-22T05:17:36.003840", "MEAN_MOTION": 14.24295865, "ECCENTRICITY": 0.0001673, "INCLINATION": 98.8974, "RA_OF_ASC_NODE": 336.0653, "ARG_OF_PERICENTER": 129.4677, "MEAN_ANOMALY": 230.665, "EPHEMERIS_TYPE": 0, "CLASSIFICATION_TYPE": "U", "NORAD_CAT_ID": 44387, "ELEMENT_SET_NO": 999, "REV_AT_EPOCH": 33610, "BSTAR": 0.00017323, "MEAN_MOTION_DOT": 3.54e-06, "MEAN_MOTION_DDOT": 0}, "tle": {"line1": "1 44387U 19038A   25356.22055560  .00000354  00000+0  17323-3 0  9993", "line2": "2 44387  98.8974 336.0653 0001673 129.4677 230.6650 14.24295865336103"}}, "geometry": {"type": "Point", "coordinates": [-42.61949563608515, 64.12223230857659]}}, {"type": "Feature", "properties": {"norad_id": 47719, "name": "ARKTIKA-M 1", "group": "weather", "lat": 58.33386406807084, "lon": -152.27455168792514, "alt_km": 33978.44696799015, "timestamp": "2025-12-22T08:58:19.987044+00:00", "meta": {"OBJECT_NAME": "ARKTIKA-M 1", "OBJECT_ID": "2021-016A", "EPOCH": "2025-12-22T01:06:25.352064", "MEAN_MOTION": 2.00630725, "ECCENTRICITY": 0.7208936, "INCLINATION": 63.1758, "RA_OF_ASC_NODE": 82.7274, "ARG_OF_PERICENTER": 269.1606, "MEAN_ANOMALY": 15.5459, "EPHEMERIS_TYPE": 0, "CLASSIFICATION_TYPE": "U", "NORAD_CAT_ID": 47719, "ELEMENT_SET_NO": 999, "REV_AT_EPOCH": 3523, "BSTAR": 0, "MEAN_MOTION_DOT": -8.3e-07, "MEAN_MOTION_DDOT": 0}, "tle": {"line1": "1 47719U 21016A   25356.04612676 -.00000083  00000+0  00000+0 0  9991", "line2": "2 47719  63.1758  82.7274 7208936 269.1606  15.5459  2.00630725 35232"}}, "geometry": {"type": "Point", "coordinates": [-152.27455168792514, 58.33386406807084]}}, {"type": "Feature", "properties": {"norad_id": 49008, "name": "FENGYUN 3E", "group": "weather", "lat": -51.20577241631756, "lon": 165.73873422445934, "alt_km": 832.1379571555044, "timestamp": "2025-12-22T08:58:19.987056+00:00", "meta": {"OBJECT_NAME": "FENGYUN 3E", "OBJECT_ID": "2021-062A", "EPOCH": "2025-12-22T04:30:01.882656", "MEAN_MOTION": 14.19882014, "ECCENTRICITY": 8.21e-05, "INCLINATION": 98.747, "RA_OF_ASC_NODE": 356.5965, "ARG_OF_PERICENTER": 201.2909, "MEAN_ANOMALY": 158.8234, "EPHEMERIS_TYPE": 0, "CLASSIFICATION_TYPE": "U", "NORAD_CAT_ID": 49008, "ELEMENT_SET_NO": 999, "REV_AT_EPOCH": 23146, "BSTAR": 0.00011118, "MEAN_MOTION_DOT": 1.92e-06, "MEAN_MOTION_DDOT": 0}, "tle": {"line1": "1 49008U 21062A   25356.18752179  .00000192  00000+0  11118-3 0  9999", "line2": "2 49008  98.7470 356.5965 0000821 201.2909 158.8234 14.19882014231466"}}, "geometry": {"type": "Point", "coordinates": [165.73873422445934, -51.20577241631756]}}, {"type": "Feature", "properties": {"norad_id": 51850, "name": "GOES 18", "group": "weather", "lat": 0.004363323767168519, "lon": 88.7615253110885, "alt_km": 35787.02115214356, "timestamp": "2025-12-22T08:58:19.987068+00:00", "meta": {"OBJECT_NAME": "GOES 18", "OBJECT_ID": "2022-021A", "EPOCH": "2025-12-22T01:46:38.731296", "MEAN_MOTION": 1.00270544, "ECCENTRICITY": 3.06e-05, "INCLINATION": 0.0059, "RA_OF_ASC_NODE": 99.3613, "ARG_OF_PERICENTER": 230.8678, "MEAN_ANOMALY": 10.3207, "EPHEMERIS_TYPE": 0, "CLASSIFICATION_TYPE": "U", "NORAD_CAT_ID": 51850, "ELEMENT_SET_NO": 999, "REV_AT_EPOCH": 481, "BSTAR": 0, "MEAN_MOTION_DOT": 1.19e-06, "MEAN_MOTION_DDOT": 0}, "tle": {"line1": "1 51850U 22021A   25356.07405939  .00000119  00000+0  00000+0 0  9993", "line2": "2 51850   0.0059  99.3613 0000306 230.8678  10.3207  1.00270544  4818"}}, "geometry": {"type": "Point", "coordinates": [88.7615253110885, 0.004363323767168519]}}]}